CCSDS_OMM_VERS = 2.0
CREATION_DATE  = 
ORIGINATOR     = 

OBJECT_NAME    = ATLAS CENTAUR R/B
OBJECT_ID      = 1972-065B
CENTER_NAME    = EARTH
REF_FRAME      = TEME
TIME_SYSTEM    = UTC
MEAN_ELEMENT_THEORY = SGP/SGP4

EPOCH          = 2026-03-08T00:06:12.690720
MEAN_MOTION    = 14.77682406
ECCENTRICITY   = .0033736
INCLINATION    = 35.0023
RA_OF_ASC_NODE = 315.6312
ARG_OF_PERICENTER = 354.6289
MEAN_ANOMALY   = 5.4047

EPHEMERIS_TYPE = 0
CLASSIFICATION_TYPE = U
NORAD_CAT_ID   = 6155
ELEMENT_SET_NO = 999
REV_AT_EPOCH   = 84101
BSTAR          = .24694E-3
MEAN_MOTION_DOT = .1791E-4
MEAN_MOTION_DDOT = 0

CCSDS_OMM_VERS = 2.0
CREATION_DATE  = 
ORIGINATOR     = 

OBJECT_NAME    = SL-8 R/B
OBJECT_ID      = 1975-112B
CENTER_NAME    = EARTH
REF_FRAME      = TEME
TIME_SYSTEM    = UTC
MEAN_ELEMENT_THEORY = SGP/SGP4

EPOCH          = 2026-03-07T14:59:58.482816
MEAN_MOTION    = 14.38202305
ECCENTRICITY   = .0014486
INCLINATION    = 74.0624
RA_OF_ASC_NODE = 22.7095
ARG_OF_PERICENTER = 116.8208
MEAN_ANOMALY   = 243.4430

EPHEMERIS_TYPE = 0
CLASSIFICATION_TYPE = U
NORAD_CAT_ID   = 8459
ELEMENT_SET_NO = 999
REV_AT_EPOCH   = 63157
BSTAR          = .12522E-3
MEAN_MOTION_DOT = .355E-5
MEAN_MOTION_DDOT = 0

CCSDS_OMM_VERS = 2.0
CREATION_DATE  = 
ORIGINATOR     = 

OBJECT_NAME    = SL-3 R/B
OBJECT_ID      = 1977-057B
CENTER_NAME    = EARTH
REF_FRAME      = TEME
TIME_SYSTEM    = UTC
MEAN_ELEMENT_THEORY = SGP/SGP4

EPOCH          = 2026-03-07T23:17:57.890688
MEAN_MOTION    = 15.45435336
ECCENTRICITY   = .0006173
INCLINATION    = 97.5772
RA_OF_ASC_NODE = 238.8158
ARG_OF_PERICENTER = 292.5499
MEAN_ANOMALY   = 67.5095

EPHEMERIS_TYPE = 0
CLASSIFICATION_TYPE = U
NORAD_CAT_ID   = 10114
ELEMENT_SET_NO = 999
REV_AT_EPOCH   = 66806
BSTAR          = .39553E-3
MEAN_MOTION_DOT = .18865E-3
MEAN_MOTION_DDOT = 0

CCSDS_OMM_VERS = 2.0
CREATION_DATE  = 
ORIGINATOR     = 

OBJECT_NAME    = SL-14 R/B
OBJECT_ID      = 1979-011B
CENTER_NAME    = EARTH
REF_FRAME      = TEME
TIME_SYSTEM    = UTC
MEAN_ELEMENT_THEORY = SGP/SGP4

EPOCH          = 2026-03-08T00:54:32.607360
MEAN_MOTION    = 14.91906320
ECCENTRICITY   = .0017474
INCLINATION    = 82.5210
RA_OF_ASC_NODE = 98.1388
ARG_OF_PERICENTER = 65.6062
MEAN_ANOMALY   = 294.6979

EPHEMERIS_TYPE = 0
CLASSIFICATION_TYPE = U
NORAD_CAT_ID   = 11267
ELEMENT_SET_NO = 999
REV_AT_EPOCH   = 52853
BSTAR          = .73573E-4
MEAN_MOTION_DOT = .771E-5
MEAN_MOTION_DDOT = 0

CCSDS_OMM_VERS = 2.0
CREATION_DATE  = 
ORIGINATOR     = 

OBJECT_NAME    = SL-8 R/B
OBJECT_ID      = 1979-089B
CENTER_NAME    = EARTH
REF_FRAME      = TEME
TIME_SYSTEM    = UTC
MEAN_ELEMENT_THEORY = SGP/SGP4

EPOCH          = 2026-03-08T00:16:35.467104
MEAN_MOTION    = 14.42349753
ECCENTRICITY   = .0017163
INCLINATION    = 74.0670
RA_OF_ASC_NODE = 94.1507
ARG_OF_PERICENTER = 267.0275
MEAN_ANOMALY   = 92.8917

EPHEMERIS_TYPE = 0
CLASSIFICATION_TYPE = U
NORAD_CAT_ID   = 11574
ELEMENT_SET_NO = 999
REV_AT_EPOCH   = 43586
BSTAR          = .12997E-3
MEAN_MOTION_DOT = .404E-5
MEAN_MOTION_DDOT = 0

CCSDS_OMM_VERS = 2.0
CREATION_DATE  = 
ORIGINATOR     = 

OBJECT_NAME    = SL-8 R/B
OBJECT_ID      = 1981-003B
CENTER_NAME    = EARTH
REF_FRAME      = TEME
TIME_SYSTEM    = UTC
MEAN_ELEMENT_THEORY = SGP/SGP4

EPOCH          = 2026-03-07T22:44:38.924736
MEAN_MOTION    = 15.10891235
ECCENTRICITY   = .02623483
INCLINATION    = 82.9382
RA_OF_ASC_NODE = 291.6349
ARG_OF_PERICENTER = 184.6855
MEAN_ANOMALY   = 175.1923

EPHEMERIS_TYPE = 0
CLASSIFICATION_TYPE = U
NORAD_CAT_ID   = 12139
ELEMENT_SET_NO = 999
REV_AT_EPOCH   = 31441
BSTAR          = .70307695E-3
MEAN_MOTION_DOT = .27359E-3
MEAN_MOTION_DDOT = 0

CCSDS_OMM_VERS = 2.0
CREATION_DATE  = 
ORIGINATOR     = 

OBJECT_NAME    = SL-3 R/B
OBJECT_ID      = 1981-046B
CENTER_NAME    = EARTH
REF_FRAME      = TEME
TIME_SYSTEM    = UTC
MEAN_ELEMENT_THEORY = SGP/SGP4

EPOCH          = 2026-03-08T00:46:36.388704
MEAN_MOTION    = 15.41943501
ECCENTRICITY   = .001968
INCLINATION    = 81.2297
RA_OF_ASC_NODE = 291.7348
ARG_OF_PERICENTER = 28.0588
MEAN_ANOMALY   = 332.1711

EPHEMERIS_TYPE = 0
CLASSIFICATION_TYPE = U
NORAD_CAT_ID   = 12465
ELEMENT_SET_NO = 999
REV_AT_EPOCH   = 43817
BSTAR          = .41576E-3
MEAN_MOTION_DOT = .17855E-3
MEAN_MOTION_DDOT = 0

CCSDS_OMM_VERS = 2.0
CREATION_DATE  = 
ORIGINATOR     = 

OBJECT_NAME    = SL-3 R/B
OBJECT_ID      = 1981-103B
CENTER_NAME    = EARTH
REF_FRAME      = TEME
TIME_SYSTEM    = UTC
MEAN_ELEMENT_THEORY = SGP/SGP4

EPOCH          = 2026-03-07T23:54:56.031840
MEAN_MOTION    = 15.21353252
ECCENTRICITY   = .0012539
INCLINATION    = 81.1589
RA_OF_ASC_NODE = 215.4179
ARG_OF_PERICENTER = 292.8344
MEAN_ANOMALY   = 67.1563

EPHEMERIS_TYPE = 0
CLASSIFICATION_TYPE = U
NORAD_CAT_ID   = 12904
ELEMENT_SET_NO = 999
REV_AT_EPOCH   = 97297
BSTAR          = .35649E-3
MEAN_MOTION_DOT = .8028E-4
MEAN_MOTION_DDOT = 0

CCSDS_OMM_VERS = 2.0
CREATION_DATE  = 
ORIGINATOR     = 

OBJECT_NAME    = SL-3 R/B
OBJECT_ID      = 1982-013B
CENTER_NAME    = EARTH
REF_FRAME      = TEME
TIME_SYSTEM    = UTC
MEAN_ELEMENT_THEORY = SGP/SGP4

EPOCH          = 2026-03-08T00:07:34.618656
MEAN_MOTION    = 15.21997325
ECCENTRICITY   = .0022574
INCLINATION    = 81.1764
RA_OF_ASC_NODE = 162.7444
ARG_OF_PERICENTER = 182.9638
MEAN_ANOMALY   = 177.1465

EPHEMERIS_TYPE = 0
CLASSIFICATION_TYPE = U
NORAD_CAT_ID   = 13068
ELEMENT_SET_NO = 999
REV_AT_EPOCH   = 40409
BSTAR          = .33474E-3
MEAN_MOTION_DOT = .7721E-4
MEAN_MOTION_DDOT = 0

CCSDS_OMM_VERS = 2.0
CREATION_DATE  = 
ORIGINATOR     = 

OBJECT_NAME    = SL-3 R/B
OBJECT_ID      = 1982-039B
CENTER_NAME    = EARTH
REF_FRAME      = TEME
TIME_SYSTEM    = UTC
MEAN_ELEMENT_THEORY = SGP/SGP4

EPOCH          = 2026-03-07T22:24:57.727872
MEAN_MOTION    = 15.10069929
ECCENTRICITY   = .00297688
INCLINATION    = 81.1585
RA_OF_ASC_NODE = 217.9859
ARG_OF_PERICENTER = 330.2074
MEAN_ANOMALY   = 29.7455

EPHEMERIS_TYPE = 0
CLASSIFICATION_TYPE = U
NORAD_CAT_ID   = 13154
ELEMENT_SET_NO = 999
REV_AT_EPOCH   = 38137
BSTAR          = .25858032E-3
MEAN_MOTION_DOT = .4275E-4
MEAN_MOTION_DDOT = 0

