ATLAS CENTAUR R/B       
1 06155U 72065B   26067.00431355  .00001791  00000+0  24694-3 0  9994
2 06155  35.0023 315.6312 0033736 354.6289   5.4047 14.77682406841011
SL-8 R/B                
1 08459U 75112B   26066.62498244  .00000355  00000+0  12522-3 0  9998
2 08459  74.0624  22.7095 0014486 116.8208 243.4430 14.38202305631575
SL-3 R/B                
1 10114U 77057B   26066.97080892  .00018865  00000+0  39553-3 0  9991
2 10114  97.5772 238.8158 0006173 292.5499  67.5095 15.45435336668065
SL-14 R/B               
1 11267U 79011B   26067.03787740  .00000771  00000+0  73573-4 0  9995
2 11267  82.5210  98.1388 0017474  65.6062 294.6979 14.91906320528536
SL-8 R/B                
1 11574U 79089B   26067.01152161  .00000404  00000+0  12997-3 0  9997
2 11574  74.0670  94.1507 0017163 267.0275  92.8917 14.42349753435861
SL-8 R/B                
1 12139U 81003B   26066.94767273  .00027359  00000+0  70308-3 0  9999
2 12139  82.9382 291.6349 0262348 184.6855 175.1923 15.10891235314412
SL-3 R/B                
1 12465U 81046B   26067.03236561  .00017855  00000+0  41576-3 0  9995
2 12465  81.2297 291.7348 0019680  28.0588 332.1711 15.41943501438172
SL-3 R/B                
1 12904U 81103B   26066.99648185  .00008028  00000+0  35649-3 0  9996
2 12904  81.1589 215.4179 0012539 292.8344  67.1563 15.21353252972972
SL-3 R/B                
1 13068U 82013B   26067.00526179  .00007721  00000+0  33474-3 0  9993
2 13068  81.1764 162.7444 0022574 182.9638 177.1465 15.21997325404094
SL-3 R/B                
1 13154U 82039B   26066.93400148  .00004275  00000+0  25858-3 0  9993
2 13154  81.1585 217.9859 0029769 330.2074  29.7455 15.10069929381373
